# These are from http://encke.jpl.nasa.gov, posting by Jost Jahn, late 1994.
# this was converted to xephem format using encke2edb.nawk, v2.
1991l Helin-L,h,1/20.0269/1992,95.4502,11.1362,271.157,1.00044,1.51772,2000,11.4,-0.1
1991o P/Chern,e,5.08209,129.743,263.195,5.79843,0,0.593637,0,1/25.4417/1992,2000,g6,6
1991g1 Zanott,h,1/31.9915/1992,50.0299,254.203,197.881,1.00006,0.643969,2000,9.1,1.5
1992g P/Muell,e,29.8071,144.733,43.586,4.31802,0,0.389315,0,2/16.3566/1992,2000,g11.5,4
1991r Helin-A,e,49.2972,252.95,30.7947,354008,0,0.999986,0,2/19.893/1992,2000,g5.5,4
1991i P/Kowal,e,4.38646,28.1207,174.653,6.08737,0,0.232387,0,3/13.0957/1992,2000,g6,6
1992b Bradfie,p,3/19.5392/1992,20.2367,15.3554,0.500157,274.634,2000,9,4
1991h1 Muelle,p,3/21.2/1992,95.5638,306.996,0.19877,288.087,2000,10.8,5.3
1991m P/Giaco,e,31.828,194.682,172.521,3.52288,0,0.706489,0,4/13.2279/1992,2000,g10,6
1992d Tanaka-,e,79.2886,299.809,65.48,312.701,0,0.995966,0,4/22.6902/1992,2000,g6.2,3
1991v McNaugh,e,90.51,119.765,257.226,589.377,0,0.994581,0,5/3.44663/1992,2000,g8,4
1991e1 P/Tsuc,e,6.71506,287.594,203.161,3.59602,0,0.504409,0,5/20.0936/1992,2000,g10.5,6
1992i Bradfie,p,5/25.794/1992,158.571,299.712,0.592305,159.295,2000,10.5,4
1992p P/Brewi,e,18.0515,343.033,47.8404,4.86215,0,0.670726,0,6/7.79266/1992,2000,g6.5,4
1992f P/Shoem,e,6.06025,212.663,22.3742,3.82166,0,0.290631,0,6/13.2565/1992,2000,g11,4
1992a Helin-A,h,7/8.68771/1992,39.2612,288.197,239.853,1.00415,3.01658,2000,8.5,4
1992k Machhol,p,7/10.9577/1992,57.7083,162.924,0.81977,234.43,2000,9,4
P/Grigg-Skjel,e,21.1042,212.631,359.276,2.96325,0,0.664325,0,7/22.138/1992,2000,g13.5,6
1991a1 Shoema,e,113.494,48.3497,145.234,6042.27,0,0.999862,0,7/24.5069/1992,2000,g8.4,2.1
1993d Mueller,h,8/4.59032/1992,53.9392,76.821,61.9958,1.00564,5.90082,2000,5.5,4
P/Smirnova-Ch,e,6.62823,76.8382,88.9384,4.18929,0,0.147314,0,8/5.93495/1992,2000,g5,6
1992m P/Wolf,e,27.4834,203.44,162.292,4.08429,0,0.405599,0,8/28.129/1992,2000,g10,6
1992o P/Danie,e,20.134,68.37,10.9917,3.68152,0,0.551964,0,9/1.67095/1992,2000,g10.5,8
1992n P/Schus,e,20.1303,49.9179,355.718,3.74986,0,0.589521,0,9/6.42249/1992,2000,g10,6
1992l P/Gicla,e,7.28646,111.873,276.441,3.64411,0,0.493212,0,9/13.0919/1992,2000,g9.5,6
1992e P/Singe,e,9.1991,191.907,46.6575,3.45709,0,0.413766,0,10/27.2349/1992,2000,g12.5,6
1992a1 Ohshit,e,115.128,137.675,310.062,80.222,0,0.991721,0,11/1.5889/1992,2000,g11.5,3.9
1992t P/Swift,e,113.432,138.744,152.997,26.3168,0,0.963589,0,12/12.3243/1992,2000,g4.5,7.5
1992s P/Ciffr,e,13.0859,53.0345,358.009,3.74051,0,0.543173,0,1/23.0649/1993,2000,g10,6
1992c P/Howel,e,4.39668,57.1202,234.682,3.14586,0,0.552065,0,2/26.096/1993,2000,g8,6
1992x P/Schau,e,11.8453,80.3854,57.4503,4.07303,0,0.704849,0,3/3.9608/1993,2000,g7.9,11.2
1993f P/Forbe,e,7.15298,333.738,310.555,3.34955,0,0.568048,0,3/14.6322/1993,2000,g9,6
1992q Helin-L,e,106.854,193.969,268.856,58.8558,0,0.965365,0,3/15.1112/1993,2000,g8.5,4
1992y Shoemak,e,65.9826,54.6034,54.8584,3928.77,0,0.999411,0,3/25.681/1993,2000,g9,4
1993i P/Holme,e,19.1646,327.339,23.2318,3.69201,0,0.410415,0,4/10.7467/1993,2000,g10,6
1992u P/Väisä,e,11.6012,134.399,47.3642,4.88118,0,0.634714,0,4/29.1751/1993,2000,g10,6
P/Lovas 2,e,1.52495,282.775,71.5615,3.57605,0,0.591172,0,6/2.40297/1993,2000,g13,6
1993u P/Wisem,e,18.1849,270.938,171.931,3.49201,0,0.567806,0,6/4.31727/1993,2000,g13.5,6
1992w P/Slaug,e,8.1493,345.738,44.1205,5.12265,0,0.503566,0,6/22.4252/1993,2000,g8,6
1993l P/Helin,e,9.88388,91.3736,163.697,4.47128,0,0.308874,0,6/30.366/1993,2000,g10,4
1993q P/Urata,e,24.2088,31.2227,21.4728,3.53439,0,0.587865,0,7/13.5783/1993,2000,g14,6
1992j P/Ashbr,e,12.4944,1.97078,348.686,3.82797,0,0.394905,0,7/14.0517/1993,2000,g5,6
1992v P/Gehre,e,1.1025,242.331,231.879,4.03532,0,0.150748,0,7/25.4208/1993,2000,g6,6
1992h Spacewa,e,124.324,202.627,83.4047,86408.2,0,0.999965,0,9/5.54815/1993,2000,g8,4
1993j P/Neujm,e,3.99279,149.766,146.972,4.83443,0,0.586031,0,11/13.038/1993,2000,g9.5,6
1993k P/Shajn,e,6.08366,166.203,216.546,3.82895,0,0.387678,0,11/15.9828/1993,2000,g10,6
1994c Mueller,e,145.136,4.47283,98.9204,55.0218,0,0.968171,0,11/28.4586/1993,2000,g12,4
1993t P/Kushi,e,2.36791,93.1693,348.131,3.79847,0,0.277295,0,12/10.1499/1993,2000,g11,4
1994a P/Kushi,e,4.18641,245.151,214.579,3.78444,0,0.638702,0,12/12.8673/1993,2000,g12.2,0.2
1993o P/West-,e,30.5408,83.4802,359.964,3.45243,0,0.543284,0,12/25.3476/1993,2000,g11,6
1993a Mueller,h,1/12.8834/1994,124.883,144.022,130.653,1.00178,1.93753,2000,5.7,3.1
P/Schwassman1,e,3.75727,125.624,358.142,3.44324,0,0.398745,0,1/23.9091/1994,2000,g7.5,6
1993r P/Spita,e,5.76626,13.835,50.1861,3.69253,0,0.422316,0,1/28.2341/1994,2000,g13,4
1993h Shoemak,h,2/2.02718/1994,67.7616,29.6312,232.451,1.0003,4.84924,2000,6,4
P/Encke,e,11.9344,334.02,186.281,2.2092,0,0.850212,0,2/9.47328/1994,2000,g11.5,6
1992z P/Kojim,e,0.8841,154.254,348.387,3.95003,0,0.392645,0,2/17.9949/1994,2000,g11,6
P/Tempel 2,e,11.9783,117.576,194.857,3.10654,0,0.522447,0,3/16.8162/1994,2000,g10,6
1994h P/Maury,e,11.7008,176.132,119.827,4.24236,0,0.522363,0,3/18.7155/1994,2000,g11.5,6
1993p Mueller,h,3/26.2797/1994,105.032,193.091,261.035,1.00028,0.967275,2000,7.9,2.9
1993e P/Shoem,e,5.8283,220.182,355.051,6.78749,0,0.20745,0,3/30.1856/1994,2000,g99.9,0
1993v McNaugh,e,51.5933,165.662,353.468,133.732,0,0.993512,0,3/31.097/1994,2000,g9,3.4
1993m P/Hartl,e,11.6931,287.154,168.455,3.60359,0,0.317013,0,5/20.6315/1994,2000,g-9.3,22
1994f Takamiz,e,132.867,306.137,61.6381,3008.55,0,0.999548,0,5/22.5374/1994,2000,g7.5,3.6
1994d Shoemak,e,131.261,165.869,57.4947,433.545,0,0.997327,0,5/27.4585/1994,2000,g13,4
1992r P/Tuttl,e,54.6917,269.845,206.711,5.67181,0,0.824089,0,6/25.2907/1994,2000,g9.5,6
1993b P/Bus,e,2.57947,181.506,24.4209,3.49099,0,0.374643,0,6/28.1444/1994,2000,g10,6
1994i Takamiz,e,135.957,50.4245,192.117,534.387,0,0.996355,0,6/29.636/1994,2000,g6.5,4
1993g P/Reinm,e,6.97861,295.426,45.9227,3.53257,0,0.464111,0,6/29.6759/1994,2000,g10.5,6
P/Kohoutek,e,5.90678,268.925,175.865,3.54315,0,0.496308,0,6/29.9011/1994,2000,g9.5,6
1993c P/Tempe,e,10.55,68.3204,178.868,3.11447,0,0.520255,0,7/3.30846/1994,2000,g5.4,10.1
1994m Nakamur,p,7/12.9398/1994,94.3844,123.07,1.14014,158.214,2000,7.9,6.7
1994b P/Wild,e,15.4517,71.9504,179.248,3.62736,0,0.366074,0,7/21.2113/1994,2000,g8.5,6
1994g P/Harri,e,8.65928,118.6,233.419,3.58338,0,0.561339,0,8/23.2338/1994,2000,g11,8
1994j P/Brook,e,5.5481,176.246,197.99,3.61958,0,0.490731,0,9/1.0882/1994,2000,g9,6
1993s P/Muell,e,16.4674,99.9852,29.9823,5.74752,0,0.260543,0,9/12.0366/1994,2000,g8.5,4
1994o P/Machh,e,12.7887,245.452,149.29,3.01194,0,0.750145,0,9/18.8041/1994,2000,g12.4,12.8
1994r Machhol,p,10/2.58727/1994,101.745,142.806,1.84557,249.946,2000,8,4
1994k P/Shoem,e,24.8056,92.2583,192.116,5.95505,0,0.50557,0,10/14.6017/1994,2000,g10,4
1994e P/Russe,e,12.0368,41.8568,249.164,3.79204,0,0.399665,0,10/27.376/1994,2000,g10,6
1994l P/Borre,e,30.2695,74.7363,353.346,3.61911,0,0.622804,0,11/1.49226/1994,2000,g9,6
1994n P/McNau,e,17.6429,35.3298,312.163,7.55606,0,0.67117,0,12/8.14552/1994,2000,g10,4
1993n P/Whipp,e,9.93361,181.792,201.88,4.17366,0,0.258713,0,12/22.4273/1994,2000,g6.5,6
P/de Vico-Swi,e,6.08955,358.323,1.92518,3.76845,0,0.430681,0,4/9.46602/1995,2000,g13.5,6
P/Finlay,e,3.66944,41.4233,323.466,3.57468,0,0.710306,0,5/5.0418/1995,2000,g13.5,6
P/Clark,e,9.50063,59.0578,208.809,3.11791,0,0.502069,0,5/31.2449/1995,2000,g11.5,6
P/d'Arrest,e,19.5284,138.3,178.039,3.48707,0,0.61404,0,7/27.362/1995,2000,g9.5,6
P/Tuttle-Giac,e,9.23016,140.82,61.6787,3.10026,0,0.656408,0,7/28.6469/1995,2000,g12.5,6
P/Tempel-Swif,e,13.18,240.3,163.31,3.44283,0,0.54,0,8/30.5/1995,2000,g13,6
1994p P/Reinm,e,8.13282,119.08,13.2498,3.76596,0,0.502491,0,9/3.31665/1995,2000,g10,6
P/Schwassman2,e,11.4213,69.279,198.743,3.05665,0,0.694837,0,9/22.7571/1995,2000,g10.5,6
P/van Houten,e,7,5.3,37.8,6.83144,0,0.383,0,10/6.5/1995,2000,g8,4
P/Jackson-Neu,e,13.4841,160.026,200.34,4.07927,0,0.661428,0,10/6.61876/1995,2000,g11,6
1994q P/Longm,e,24.4038,14.9623,195.792,3.65173,0,0.34306,0,10/9.32015/1995,2000,g9.5,6
P/Perrine-Mrk,e,17.835,239.912,166.561,3.5774,0,0.638584,0,12/6.04814/1995,2000,g11.5,8
P/Honda-Mrkos,e,4.25092,88.5559,325.973,3.02752,0,0.824302,0,12/25.9297/1995,2000,g14,8
P/Pons-Winnec,e,22.3024,92.7453,172.296,3.43538,0,0.634424,0,1/2.45304/1996,2000,g12,6
P/Churyumov-G,e,7.10965,50.3507,11.3434,3.51544,0,0.630193,0,1/17.6618/1996,2000,g10,6
P/du Toit-Neu,e,2.85165,188.261,115.223,3.44456,0,0.50077,0,3/5.61071/1996,2000,g11.5,6
P/Mueller 1,e,8.78917,3.86854,29.9325,4.13498,0,0.337472,0,4/25.5011/1996,2000,g12,6
P/West-Hartle,e,15.3419,45.9867,102.96,3.86174,0,0.44763,0,5/12.0404/1996,2000,g11.5,4
P/Denning-Fuj,e,9.12218,35.7172,337.549,4.33686,0,0.817798,0,5/29.7763/1996,2000,g15,6
P/Comas Sola,e,12.9141,60.1972,45.7413,4.27192,0,0.56779,0,6/10.4655/1996,2000,g8,6
P/Parker-Hart,e,5.18537,243.549,181.269,4.292,0,0.290228,0,6/25.4529/1996,2000,g8,6
P/Kopff,e,4.72521,120.279,162.77,3.46451,0,0.544074,0,7/2.1998/1996,2000,g7,6
P/de Vico,e,85.38238,79.62649,12.97805,17.68245,0,.9627363,0,10/6.025/1995,2000,g7.2,4
P/Spacewatch,e,9.9766,152.686,87.2536,3.13898,0,0.50975,0,7/16.8702/1996,2000,g15.5,4
P/Gunn,e,10.378,67.8545,196.783,3.60096,0,0.316313,0,7/24.4009/1996,2000,g5,6
P/Shoemaker-H,e,17.7,99.052,5.97674,6.06145,0,0.337223,0,8/20.211/1996,2000,g7.5,4
P/Wild 4,e,3.71385,21.4117,170.709,3.35895,0,0.407832,0,8/31.5372/1996,2000,g9,4
P/Machholz 1,e,60.0752,93.8372,14.5786,3.01517,0,0.958637,0,10/15.0696/1996,2000,g13,6
P/IRAS,e,45.9564,357.003,356.886,5.61317,0,0.69665,0,10/31.6511/1996,2000,g9.5,6
P/Helin-Roman,e,4.23063,91.3672,10.0845,4.05181,0,0.138704,0,11/1.17585/1996,2000,g7,6
P/Tritton,e,7.04538,299.972,147.629,3.4249,0,0.580612,0,11/5.01256/1996,2000,g12.5,6
P/Mrkos,e,31.4638,0.95532,180.521,3.1696,0,0.554236,0,11/8.97645/1996,2000,g14,4
